GLOBALSTAR M035         
1 25851U 99037A   24240.62186257 -.00000084  00000+0 -76475-3 0  9993
2 25851  51.9996 349.6419 0013422 223.9727 148.5267 11.04531839 63830
GLOBALSTAR M032         
1 25852U 99037B   24240.90369472 -.00000004  00000+0  20027-2 0  9999
2 25852  51.9926 194.4434 0010594  31.0624 329.0801 11.19060647101954
GLOBALSTAR M051         
1 25853U 99037C   24241.14913192 -.00000060  00000+0  29724-3 0  9997
2 25853  51.9822  27.8049 0001995  68.0082 292.0941 11.42198646 98927
GLOBALSTAR M030         
1 25854U 99037D   24240.90372658 -.00000050  00000+0  52864-3 0  9997
2 25854  51.9847 213.1534 0003617 243.0329 117.0119 11.55100321116152
GLOBALSTAR M048         
1 25872U 99041A   24240.93153476 -.00000050  00000+0  55269-3 0  9992
2 25872  51.9385 312.0320 0013226  38.4301 133.3322 11.33848439 91710
GLOBALSTAR M043         
1 25874U 99041C   24240.78039890 -.00000071  00000+0 -97936-4 0  9992
2 25874  51.9418  48.3342 0012947 166.9104 206.0756 11.25687572 89838
GLOBALSTAR M028         
1 25875U 99041D   24240.66953681 -.00000063  00000+0  24290-3 0  9995
2 25875  51.9653 348.2703 0063969 153.6697 206.7438 12.50562332153452
